[
  {
    "region_id": 1,
    "capital_city_id": 3,
    "code": "RD",
    "name_ar": "الرياض",
    "name_en": "Riyadh"
  },
  {
    "region_id": 2,
    "capital_city_id": 6,
    "code": "MQ",
    "name_ar": "مكة المكرمة",
    "name_en": "Makkah"
  },
  {
    "region_id": 3,
    "capital_city_id": 14,
    "code": "MN",
    "name_ar": "المدينة المنورة",
    "name_en": "Madinah",
    "population": 1777933
  },
  {
    "region_id": 4,
    "capital_city_id": 11,
    "code": "QA",
    "name_ar": "القصيم",
    "name_en": "Qassim"
  },
  {
    "region_id": 5,
    "capital_city_id": 13,
    "code": "SQ",
    "name_ar": "الشرقية",
    "name_en": "Eastern Province",
    "population": 4105780
  },
  {
    "region_id": 6,
    "capital_city_id": 15,
    "code": "AS",
    "name_ar": "عسير",
    "name_en": "Asir",
    "population": 1913392
  },
  {
    "region_id": 7,
    "capital_city_id": 1,
    "code": "TB",
    "name_ar": "تبوك",
    "name_en": "Tabuk"
  },
  {
    "region_id": 8,
    "capital_city_id": 10,
    "code": "HA",
    "name_ar": "حائل",
    "name_en": "Hail"
  },
  {
    "region_id": 9,
    "capital_city_id": 2213,
    "code": "SH",
    "name_ar": "الحدود الشمالية",
    "name_en": "Northern Borders"
  },
  {
    "region_id": 10,
    "capital_city_id": 17,
    "code": "GA",
    "name_ar": "جازان",
    "name_en": "Jazan"
  },
  {
    "region_id": 11,
    "capital_city_id": 3417,
    "code": "NG",
    "name_ar": "نجران",
    "name_en": "Najran"
  },
  {
    "region_id": 12,
    "capital_city_id": 1542,
    "code": "BA",
    "name_ar": "الباحة",
    "name_en": "Bahah"
  },
  {
    "region_id": 13,
    "capital_city_id": 2237,
    "code": "GO",
    "name_ar": "الجوف",
    "name_en": "Jawf"
  }
]
